GLOBALSTAR M067         
1 32263U 07048A   25074.62983376 -.00000032  00000+0  48597-3 0  9998
2 32263  51.9737 309.6912 0001485 114.7219 269.3348 12.40668349797879
GLOBALSTAR M070         
1 32264U 07048B   25074.64688306 -.00000098  00000+0  33510-4 0  9998
2 32264  51.9758  53.4623 0000181  55.5753 115.8725 12.62313744801851
GLOBALSTAR M066         
1 32265U 07048C   25074.63887684 -.00000053  00000+0  34470-3 0  9994
2 32265  51.9643 296.3700 0002054  49.8131 326.9387 12.35251475803747
GLOBALSTAR M068         
1 32266U 07048D   25074.60056384 -.00000074  00000+0  16748-3 0  9998
2 32266  51.9870 227.5389 0000093 317.6993 121.4049 12.62817062805736
GLOBALSTAR M079         
1 37188U 10054A   25074.44600274 -.00000093  00000+0  60801-4 0  9993
2 37188  52.0038  65.1474 0000641  85.3057  80.0310 12.62271696664610
GLOBALSTAR M074         
1 37189U 10054B   25074.47307135 -.00000107  00000+0 -17255-4 0  9999
2 37189  52.0017  64.4032 0000344 119.2397  48.0139 12.62267179665226
GLOBALSTAR M076         
1 37190U 10054C   25074.41695222 -.00000099  00000+0  27692-4 0  9997
2 37190  52.0030  64.7318 0000657 116.8739  38.4256 12.62278533664939
GLOBALSTAR M077         
1 37191U 10054D   25074.56656245 -.00000095  00000+0  50256-4 0  9994
2 37191  52.0097  21.1108 0000500  76.6489  96.1685 12.62271497665322
